{
    "links": {
        "self": "http://www.neowsapp.com/rest/v1/neo/3644086?api_key=iIulBulltgU6a56xZRHN4H3l9WmuAYTsLGpBGhQ2"
    },
    "id": "3644086",
    "neo_reference_id": "3644086",
    "name": "(2013 MQ)",
    "designation": "2013 MQ",
    "nasa_jpl_url": "http://ssd.jpl.nasa.gov/sbdb.cgi?sstr=3644086",
    "absolute_magnitude_h": 23.8,
    "estimated_diameter": {
        "kilometers": {
            "estimated_diameter_min": 0.046190746,
            "estimated_diameter_max": 0.1032856481
        },
        "meters": {
            "estimated_diameter_min": 46.1907460282,
            "estimated_diameter_max": 103.2856480504
        },
        "miles": {
            "estimated_diameter_min": 0.0287015901,
            "estimated_diameter_max": 0.0641787064
        },
        "feet": {
            "estimated_diameter_min": 151.544447199,
            "estimated_diameter_max": 338.8636855496
        }
    },
    "is_potentially_hazardous_asteroid": false,
    "close_approach_data": [
        {
            "close_approach_date": "1993-05-14",
            "close_approach_date_full": "1993-May-14 08:03",
            "epoch_date_close_approach": 737366580000,
            "relative_velocity": {
                "kilometers_per_second": "16.3233977188",
                "kilometers_per_hour": "58764.2317878578",
                "miles_per_hour": "36513.8083572942"
            },
            "miss_distance": {
                "astronomical": "0.4000309294",
                "lunar": "155.6120315366",
                "kilometers": "59843774.972360378",
                "miles": "37185197.4673060964"
            },
            "orbiting_body": "Earth"
        },
        {
            "close_approach_date": "2003-06-02",
            "close_approach_date_full": "2003-Jun-02 12:40",
            "epoch_date_close_approach": 1054557600000,
            "relative_velocity": {
                "kilometers_per_second": "9.4138022718",
                "kilometers_per_hour": "33889.6881785157",
                "miles_per_hour": "21057.7343018116"
            },
            "miss_distance": {
                "astronomical": "0.1788065145",
                "lunar": "69.5557341405",
                "kilometers": "26749073.711324115",
                "miles": "16621103.673398187"
            },
            "orbiting_body": "Earth"
        },
        {
            "close_approach_date": "2013-06-18",
            "close_approach_date_full": "2013-Jun-18 18:25",
            "epoch_date_close_approach": 1371579900000,
            "relative_velocity": {
                "kilometers_per_second": "6.5313695905",
                "kilometers_per_hour": "23512.9305258309",
                "miles_per_hour": "14610.0206370087"
            },
            "miss_distance": {
                "astronomical": "0.0868043917",
                "lunar": "33.7669083713",
                "kilometers": "12985752.104965679",
                "miles": "8068972.1948132102"
            },
            "orbiting_body": "Earth"
        },
        {
            "close_approach_date": "2053-08-11",
            "close_approach_date_full": "2053-Aug-11 23:14",
            "epoch_date_close_approach": 2638566840000,
            "relative_velocity": {
                "kilometers_per_second": "18.173446333",
                "kilometers_per_hour": "65424.4067988889",
                "miles_per_hour": "40652.182102343"
            },
            "miss_distance": {
                "astronomical": "0.4426033077",
                "lunar": "172.1726866953",
                "kilometers": "66212512.086874599",
                "miles": "41142547.2055195062"
            },
            "orbiting_body": "Earth"
        },
        {
            "close_approach_date": "2120-05-14",
            "close_approach_date_full": "2120-May-14 06:36",
            "epoch_date_close_approach": 4745111760000,
            "relative_velocity": {
                "kilometers_per_second": "17.660938072",
                "kilometers_per_hour": "63579.3770591831",
                "miles_per_hour": "39505.7523732463"
            },
            "miss_distance": {
                "astronomical": "0.4408762677",
                "lunar": "171.5008681353",
                "kilometers": "65954150.581469799",
                "miles": "40982008.8103252662"
            },
            "orbiting_body": "Earth"
        }
    ],
    "orbital_data": {
        "orbit_id": "15",
        "orbit_determination_date": "2017-04-06 08:45:32",
        "first_observation_date": "2013-06-17",
        "last_observation_date": "2013-08-07",
        "data_arc_in_days": 51,
        "observations_used": 36,
        "orbit_uncertainty": "6",
        "minimum_orbit_intersection": ".0776213",
        "jupiter_tisserand_invariant": "3.453",
        "epoch_osculation": "2459000.5",
        "eccentricity": ".5108045632071648",
        "semi_major_axis": "2.233291068657844",
        "inclination": "4.420430869257737",
        "ascending_node_longitude": "105.313233208104",
        "orbital_period": "1219.035689382457",
        "perihelion_distance": "1.092515799817612",
        "perihelion_argument": "168.0581909003117",
        "aphelion_distance": "3.374066337498076",
        "perihelion_time": "2458904.144845935184",
        "mean_anomaly": "28.45515989848186",
        "mean_motion": ".2953153899721919",
        "equinox": "J2000",
        "orbit_class": {
            "orbit_class_type": "AMO",
            "orbit_class_description": "Near-Earth asteroid orbits similar to that of 1221 Amor",
            "orbit_class_range": "1.017 AU < q (perihelion) < 1.3 AU"
        }
    },
    "is_sentry_object": false
}